[{"OBJECT_NAME":"SKYBEE-A02","OBJECT_ID":"2025-135S","EPOCH":"2026-03-09T21:58:43.816224","MEAN_MOTION":15.19505176,"ECCENTRICITY":0.00031028,"INCLINATION":97.4603,"RA_OF_ASC_NODE":184.7908,"ARG_OF_PERICENTER":118.2708,"MEAN_ANOMALY":241.884,"EPHEMERIS_TYPE":0,"CLASSIFICATION_TYPE":"U","NORAD_CAT_ID":64544,"ELEMENT_SET_NO":999,"REV_AT_EPOCH":3975,"BSTAR":0.00020650672,"MEAN_MOTION_DOT":4.316e-5,"MEAN_MOTION_DDOT":0},{"OBJECT_NAME":"CZ-4 DEB","OBJECT_ID":"1990-081AM","EPOCH":"2026-03-09T17:46:45.223680","MEAN_MOTION":15.18516637,"ECCENTRICITY":0.00075172,"INCLINATION":98.1393,"RA_OF_ASC_NODE":114.284,"ARG_OF_PERICENTER":213.3287,"MEAN_ANOMALY":271.4543,"EPHEMERIS_TYPE":0,"CLASSIFICATION_TYPE":"U","NORAD_CAT_ID":20877,"ELEMENT_SET_NO":999,"REV_AT_EPOCH":85586,"BSTAR":0.0032141907,"MEAN_MOTION_DOT":0.00066859,"MEAN_MOTION_DDOT":0}]
